[{"OBJECT_NAME":"STARLINK-1527","OBJECT_ID":"2020-055X","EPOCH":"2026-03-09T12:43:23.528352","MEAN_MOTION":15.30184962,"ECCENTRICITY":0.00013023,"INCLINATION":53.1608,"RA_OF_ASC_NODE":114.6784,"ARG_OF_PERICENTER":108.7364,"MEAN_ANOMALY":251.3778,"EPHEMERIS_TYPE":0,"CLASSIFICATION_TYPE":"U","NORAD_CAT_ID":46048,"ELEMENT_SET_NO":999,"REV_AT_EPOCH":30902,"BSTAR":0.0003945505,"MEAN_MOTION_DOT":0.00011339,"MEAN_MOTION_DDOT":0},{"OBJECT_NAME":"NUSAT-44 (MARIA MITCHELL)","OBJECT_ID":"2024-043AA","EPOCH":"2026-03-09T22:12:18.524160","MEAN_MOTION":15.29764305,"ECCENTRICITY":0.0007331,"INCLINATION":97.5299,"RA_OF_ASC_NODE":207.7691,"ARG_OF_PERICENTER":214.9017,"MEAN_ANOMALY":145.1743,"EPHEMERIS_TYPE":0,"CLASSIFICATION_TYPE":"U","NORAD_CAT_ID":59122,"ELEMENT_SET_NO":999,"REV_AT_EPOCH":11209,"BSTAR":0.00061063193,"MEAN_MOTION_DOT":0.00017562,"MEAN_MOTION_DDOT":0}]
